CCSDS_OMM_VERS = 2.0
CREATION_DATE  = 
ORIGINATOR     = 

OBJECT_NAME    = STARLINK-35208
OBJECT_ID      = 2025-223A
CENTER_NAME    = EARTH
REF_FRAME      = TEME
TIME_SYSTEM    = UTC
MEAN_ELEMENT_THEORY = SGP/SGP4

EPOCH          = 2025-10-30T19:13:48.869184
MEAN_MOTION    = 15.39644334
ECCENTRICITY   = .0001377
INCLINATION    = 53.1598
RA_OF_ASC_NODE = 180.0117
ARG_OF_PERICENTER = 83.9201
MEAN_ANOMALY   = 276.1961

EPHEMERIS_TYPE = 0
CLASSIFICATION_TYPE = U
NORAD_CAT_ID   = 65854
ELEMENT_SET_NO = 999
REV_AT_EPOCH   = 428
BSTAR          = .16361E-2
MEAN_MOTION_DOT = .6566E-3
MEAN_MOTION_DDOT = 0

CCSDS_OMM_VERS = 2.0
CREATION_DATE  = 
ORIGINATOR     = 

OBJECT_NAME    = STARLINK-35200
OBJECT_ID      = 2025-223B
CENTER_NAME    = EARTH
REF_FRAME      = TEME
TIME_SYSTEM    = UTC
MEAN_ELEMENT_THEORY = SGP/SGP4

EPOCH          = 2025-10-30T20:00:03.000384
MEAN_MOTION    = 15.39675359
ECCENTRICITY   = .0001351
INCLINATION    = 53.1595
RA_OF_ASC_NODE = 179.5030
ARG_OF_PERICENTER = 106.7734
MEAN_ANOMALY   = 251.7066

EPHEMERIS_TYPE = 0
CLASSIFICATION_TYPE = U
NORAD_CAT_ID   = 65855
ELEMENT_SET_NO = 999
REV_AT_EPOCH   = 559
BSTAR          = -.33705E-2
MEAN_MOTION_DOT = -.133133E-2
MEAN_MOTION_DDOT = 0

CCSDS_OMM_VERS = 2.0
CREATION_DATE  = 
ORIGINATOR     = 

OBJECT_NAME    = STARLINK-35459
OBJECT_ID      = 2025-223C
CENTER_NAME    = EARTH
REF_FRAME      = TEME
TIME_SYSTEM    = UTC
MEAN_ELEMENT_THEORY = SGP/SGP4

EPOCH          = 2025-10-30T20:00:03.000384
MEAN_MOTION    = 15.39595703
ECCENTRICITY   = .000101
INCLINATION    = 53.1610
RA_OF_ASC_NODE = 179.7067
ARG_OF_PERICENTER = 92.3450
MEAN_ANOMALY   = 163.0805

EPHEMERIS_TYPE = 0
CLASSIFICATION_TYPE = U
NORAD_CAT_ID   = 65856
ELEMENT_SET_NO = 999
REV_AT_EPOCH   = 559
BSTAR          = .63721E-3
MEAN_MOTION_DOT = .25152E-3
MEAN_MOTION_DDOT = 0

CCSDS_OMM_VERS = 2.0
CREATION_DATE  = 
ORIGINATOR     = 

OBJECT_NAME    = STARLINK-35489
OBJECT_ID      = 2025-223D
CENTER_NAME    = EARTH
REF_FRAME      = TEME
TIME_SYSTEM    = UTC
MEAN_ELEMENT_THEORY = SGP/SGP4

EPOCH          = 2025-10-30T18:16:54.585696
MEAN_MOTION    = 15.49331278
ECCENTRICITY   = .0000895
INCLINATION    = 53.1600
RA_OF_ASC_NODE = 179.7633
ARG_OF_PERICENTER = 69.3902
MEAN_ANOMALY   = 290.7203

EPHEMERIS_TYPE = 0
CLASSIFICATION_TYPE = U
NORAD_CAT_ID   = 65857
ELEMENT_SET_NO = 999
REV_AT_EPOCH   = 428
BSTAR          = .1744E-2
MEAN_MOTION_DOT = .97846E-3
MEAN_MOTION_DDOT = 0

CCSDS_OMM_VERS = 2.0
CREATION_DATE  = 
ORIGINATOR     = 

OBJECT_NAME    = STARLINK-35199
OBJECT_ID      = 2025-223E
CENTER_NAME    = EARTH
REF_FRAME      = TEME
TIME_SYSTEM    = UTC
MEAN_ELEMENT_THEORY = SGP/SGP4

EPOCH          = 2025-10-30T20:00:03.000384
MEAN_MOTION    = 15.39600577
ECCENTRICITY   = .0001241
INCLINATION    = 53.1605
RA_OF_ASC_NODE = 179.6043
ARG_OF_PERICENTER = 106.5996
MEAN_ANOMALY   = 200.3234

EPHEMERIS_TYPE = 0
CLASSIFICATION_TYPE = U
NORAD_CAT_ID   = 65858
ELEMENT_SET_NO = 999
REV_AT_EPOCH   = 559
BSTAR          = .60236E-3
MEAN_MOTION_DOT = .23754E-3
MEAN_MOTION_DDOT = 0

CCSDS_OMM_VERS = 2.0
CREATION_DATE  = 
ORIGINATOR     = 

OBJECT_NAME    = STARLINK-35408
OBJECT_ID      = 2025-223F
CENTER_NAME    = EARTH
REF_FRAME      = TEME
TIME_SYSTEM    = UTC
MEAN_ELEMENT_THEORY = SGP/SGP4

EPOCH          = 2025-10-30T19:07:07.751136
MEAN_MOTION    = 15.39621690
ECCENTRICITY   = .0001291
INCLINATION    = 53.1608
RA_OF_ASC_NODE = 179.9818
ARG_OF_PERICENTER = 82.6099
MEAN_ANOMALY   = 277.5052

EPHEMERIS_TYPE = 0
CLASSIFICATION_TYPE = U
NORAD_CAT_ID   = 65859
ELEMENT_SET_NO = 999
REV_AT_EPOCH   = 428
BSTAR          = .14035E-2
MEAN_MOTION_DOT = .56157E-3
MEAN_MOTION_DDOT = 0

CCSDS_OMM_VERS = 2.0
CREATION_DATE  = 
ORIGINATOR     = 

OBJECT_NAME    = STARLINK-35303
OBJECT_ID      = 2025-223G
CENTER_NAME    = EARTH
REF_FRAME      = TEME
TIME_SYSTEM    = UTC
MEAN_ELEMENT_THEORY = SGP/SGP4

EPOCH          = 2025-10-30T20:00:03.000384
MEAN_MOTION    = 15.39595305
ECCENTRICITY   = .0001251
INCLINATION    = 53.1609
RA_OF_ASC_NODE = 179.6560
ARG_OF_PERICENTER = 92.4143
MEAN_ANOMALY   = 188.7718

EPHEMERIS_TYPE = 0
CLASSIFICATION_TYPE = U
NORAD_CAT_ID   = 65860
ELEMENT_SET_NO = 999
REV_AT_EPOCH   = 559
BSTAR          = .54416E-3
MEAN_MOTION_DOT = .2141E-3
MEAN_MOTION_DDOT = 0

CCSDS_OMM_VERS = 2.0
CREATION_DATE  = 
ORIGINATOR     = 

OBJECT_NAME    = STARLINK-35258
OBJECT_ID      = 2025-223H
CENTER_NAME    = EARTH
REF_FRAME      = TEME
TIME_SYSTEM    = UTC
MEAN_ELEMENT_THEORY = SGP/SGP4

EPOCH          = 2025-10-30T18:15:55.068192
MEAN_MOTION    = 15.49332321
ECCENTRICITY   = .0000641
INCLINATION    = 53.1592
RA_OF_ASC_NODE = 179.7581
ARG_OF_PERICENTER = 96.1173
MEAN_ANOMALY   = 263.9909

EPHEMERIS_TYPE = 0
CLASSIFICATION_TYPE = U
NORAD_CAT_ID   = 65861
ELEMENT_SET_NO = 999
REV_AT_EPOCH   = 428
BSTAR          = .1474E-2
MEAN_MOTION_DOT = .8247E-3
MEAN_MOTION_DDOT = 0

CCSDS_OMM_VERS = 2.0
CREATION_DATE  = 
ORIGINATOR     = 

OBJECT_NAME    = STARLINK-35386
OBJECT_ID      = 2025-223J
CENTER_NAME    = EARTH
REF_FRAME      = TEME
TIME_SYSTEM    = UTC
MEAN_ELEMENT_THEORY = SGP/SGP4

EPOCH          = 2025-10-30T20:00:03.000384
MEAN_MOTION    = 15.39664633
ECCENTRICITY   = .0000334
INCLINATION    = 53.1601
RA_OF_ASC_NODE = 179.5521
ARG_OF_PERICENTER = 79.8454
MEAN_ANOMALY   = 252.7579

EPHEMERIS_TYPE = 0
CLASSIFICATION_TYPE = U
NORAD_CAT_ID   = 65862
ELEMENT_SET_NO = 999
REV_AT_EPOCH   = 559
BSTAR          = -.14575E-2
MEAN_MOTION_DOT = -.58337E-3
MEAN_MOTION_DDOT = 0

CCSDS_OMM_VERS = 2.0
CREATION_DATE  = 
ORIGINATOR     = 

OBJECT_NAME    = STARLINK-35469
OBJECT_ID      = 2025-223K
CENTER_NAME    = EARTH
REF_FRAME      = TEME
TIME_SYSTEM    = UTC
MEAN_ELEMENT_THEORY = SGP/SGP4

EPOCH          = 2025-10-30T19:00:25.869312
MEAN_MOTION    = 15.39593800
ECCENTRICITY   = .0001111
INCLINATION    = 53.1613
RA_OF_ASC_NODE = 179.9529
ARG_OF_PERICENTER = 72.7169
MEAN_ANOMALY   = 287.3957

EPHEMERIS_TYPE = 0
CLASSIFICATION_TYPE = U
NORAD_CAT_ID   = 65863
ELEMENT_SET_NO = 999
REV_AT_EPOCH   = 428
BSTAR          = .51277E-3
MEAN_MOTION_DOT = .20147E-3
MEAN_MOTION_DDOT = 0

CCSDS_OMM_VERS = 2.0
CREATION_DATE  = 
ORIGINATOR     = 

OBJECT_NAME    = STARLINK-35471
OBJECT_ID      = 2025-223L
CENTER_NAME    = EARTH
REF_FRAME      = TEME
TIME_SYSTEM    = UTC
MEAN_ELEMENT_THEORY = SGP/SGP4

EPOCH          = 2025-10-30T20:00:03.000384
MEAN_MOTION    = 15.40400972
ECCENTRICITY   = .0001082
INCLINATION    = 53.1593
RA_OF_ASC_NODE = 179.4498
ARG_OF_PERICENTER = 112.9322
MEAN_ANOMALY   = 270.8576

EPHEMERIS_TYPE = 0
CLASSIFICATION_TYPE = U
NORAD_CAT_ID   = 65864
ELEMENT_SET_NO = 999
REV_AT_EPOCH   = 559
BSTAR          = -.29788E-1
MEAN_MOTION_DOT = -.1118815E-1
MEAN_MOTION_DDOT = 0

CCSDS_OMM_VERS = 2.0
CREATION_DATE  = 
ORIGINATOR     = 

OBJECT_NAME    = STARLINK-35475
OBJECT_ID      = 2025-223M
CENTER_NAME    = EARTH
REF_FRAME      = TEME
TIME_SYSTEM    = UTC
MEAN_ELEMENT_THEORY = SGP/SGP4

EPOCH          = 2025-10-30T20:00:03.000384
MEAN_MOTION    = 15.43794482
ECCENTRICITY   = .0000972
INCLINATION    = 53.1597
RA_OF_ASC_NODE = 179.4122
ARG_OF_PERICENTER = 99.8226
MEAN_ANOMALY   = 303.2033

EPHEMERIS_TYPE = 0
CLASSIFICATION_TYPE = U
NORAD_CAT_ID   = 65865
ELEMENT_SET_NO = 999
REV_AT_EPOCH   = 559
BSTAR          = -.50547E-1
MEAN_MOTION_DOT = -.2064108E-1
MEAN_MOTION_DDOT = 0

