STARLINK-35208          
1 65854U 25223A   25303.80126006  .00065660  00000+0  16361-2 0  9999
2 65854  53.1598 180.0117 0001377  83.9201 276.1961 15.39644334  4288
STARLINK-35200          
1 65855U 25223B   25303.83336806 -.00133133  00000+0 -33705-2 0  9998
2 65855  53.1595 179.5030 0001351 106.7734 251.7066 15.39675359  5591
STARLINK-35459          
1 65856U 25223C   25303.83336806  .00025152  00000+0  63721-3 0  9990
2 65856  53.1610 179.7067 0001010  92.3450 163.0805 15.39595703  5599
STARLINK-35489          
1 65857U 25223D   25303.76174289  .00097846  00000+0  17440-2 0  9993
2 65857  53.1600 179.7633 0000895  69.3902 290.7203 15.49331278  4285
STARLINK-35199          
1 65858U 25223E   25303.83336806  .00023754  00000+0  60236-3 0  9996
2 65858  53.1605 179.6043 0001241 106.5996 200.3234 15.39600577  5594
STARLINK-35408          
1 65859U 25223F   25303.79661749  .00056157  00000+0  14035-2 0  9997
2 65859  53.1608 179.9818 0001291  82.6099 277.5052 15.39621690  4282
STARLINK-35303          
1 65860U 25223G   25303.83336806  .00021410  00000+0  54416-3 0  9999
2 65860  53.1609 179.6560 0001251  92.4143 188.7718 15.39595305  5591
STARLINK-35258          
1 65861U 25223H   25303.76105403  .00082470  00000+0  14740-2 0  9997
2 65861  53.1592 179.7581 0000641  96.1173 263.9909 15.49332321  4284
STARLINK-35386          
1 65862U 25223J   25303.83336806 -.00058337  00000+0 -14575-2 0  9992
2 65862  53.1601 179.5521 0000334  79.8454 252.7579 15.39664633  5594
STARLINK-35469          
1 65863U 25223K   25303.79196608  .00020147  00000+0  51277-3 0  9999
2 65863  53.1613 179.9529 0001111  72.7169 287.3957 15.39593800  4285
STARLINK-35471          
1 65864U 25223L   25303.83336806 -.01118815  00000+0 -29788-1 0  9994
2 65864  53.1593 179.4498 0001082 112.9322 270.8576 15.40400972  5596
STARLINK-35475          
1 65865U 25223M   25303.83336806 -.02064108  00000+0 -50547-1 0  9998
2 65865  53.1597 179.4122 0000972  99.8226 303.2033 15.43794482  5592
